IOD-1                   
1 63212U 25052C   26068.70829322  .00045025  00000+0  99903-3 0  9991
2 63212  97.3948 328.1719 0004345 101.0631 259.1106 15.43584061 55095
STARLINK-34379          
1 64302U 25123M   26068.67949754  .00048253  00000+0  10994-2 0  9997
2 64302  70.0035 164.9522 0002105 264.6455  95.4487 15.42688332 42354
