[{"OBJECT_NAME":"IOD-1","OBJECT_ID":"2025-052C","EPOCH":"2026-03-09T16:59:56.534208","MEAN_MOTION":15.43584061,"ECCENTRICITY":0.00043456,"INCLINATION":97.3948,"RA_OF_ASC_NODE":328.1719,"ARG_OF_PERICENTER":101.0631,"MEAN_ANOMALY":259.1106,"EPHEMERIS_TYPE":0,"CLASSIFICATION_TYPE":"U","NORAD_CAT_ID":63212,"ELEMENT_SET_NO":999,"REV_AT_EPOCH":5509,"BSTAR":0.00099902615,"MEAN_MOTION_DOT":0.00045025,"MEAN_MOTION_DDOT":0},{"OBJECT_NAME":"STARLINK-34379","OBJECT_ID":"2025-123M","EPOCH":"2026-03-09T16:18:28.587456","MEAN_MOTION":15.42688332,"ECCENTRICITY":0.00021053,"INCLINATION":70.0035,"RA_OF_ASC_NODE":164.9522,"ARG_OF_PERICENTER":264.6455,"MEAN_ANOMALY":95.4487,"EPHEMERIS_TYPE":0,"CLASSIFICATION_TYPE":"U","NORAD_CAT_ID":64302,"ELEMENT_SET_NO":999,"REV_AT_EPOCH":4235,"BSTAR":0.0010993501,"MEAN_MOTION_DOT":0.00048253,"MEAN_MOTION_DDOT":0}]
